STARLINK-36103          
1 66985U 25288AC  26002.28897115  .00085584  00000+0  14472-2 0  9999
2 66985  43.0010  43.5254 0000444 299.9347  60.1469 15.50608976  5077
STARLINK-36135          
1 66986U 25288AD  26002.28862554  .00076980  00000+0  13040-2 0  9999
2 66986  43.0009  43.5219 0001273 252.6729 107.3992 15.50602649  5074
STARLINK-36147          
1 66987U 25288AE  26002.28827831  .00061107  00000+0  10390-2 0  9999
2 66987  43.0009  43.5200 0001032 222.3820 137.6961 15.50586512  5076
YAOGAN-47               
1 66988U 25289A   25362.17815560  .00004855  00000+0  20730-3 0  9990
2 66988  97.5253  67.3364 0000855 117.9958 242.1365 15.23366104  2890
CZ-4B R/B               
1 66989U 25289B   26002.17279017  .00171103  11031-4  73353-3 0  9995
2 66989  97.5217  74.0576 0133050 285.3746  73.2850 15.72757740  3774
TJS-22                  
1 66990U 25290A   26001.32876081  .00000008  00000+0  00000+0 0  9998
2 66990   1.9395 285.0568 0003312 344.4694  16.2782  1.00272648   350
CZ-3B R/B               
1 66991U 25290B   25349.72468800  .00057911 -20514-6  75879-3 0  9998
2 66991  28.4636 300.4666 7240884 182.7002 168.6250  2.38388611   165
2025-292A               
1 66993U 25292A   26002.29061775  .00009169  00000+0  65362-3 0  9999
2 66993  97.6505  79.6401 0015139 199.6969 160.3674 15.04707126  3487
2025-292B               
1 66994U 25292B   26002.28987445  .00010376  00000+0  73771-3 0  9995
2 66994  97.6516  79.6436 0014937 200.0439 160.0202 15.04770836  3484
2025-292C               
1 66995U 25292C   26002.29021051  .00011070  00000+0  78852-3 0  9996
2 66995  97.6507  79.6406 0015112 198.1869 161.8819 15.04681660  3481
2025-292D               
1 66996U 25292D   26002.28934923  .00008253  00000+0  58827-3 0  9996
2 66996  97.6503  79.6403 0014310 202.0693 157.9918 15.04751150  3482
2025-292E               
1 66997U 25292E   26002.28780114  .00009039  00000+0  64134-3 0  9999
2 66997  97.6525  79.6484 0014643 203.4173 156.6388 15.04892143  3477
